{
  "type": "FeatureCollection",
  "features": [
    {
      "type": "Feature",
      "properties": {
        "norad_id": 37238,
        "name": "INTELSAT 17 (IS-17)",
        "group": "intelsat",
        "lat": -0.01786546446810062,
        "lon": -84.64848283048988,
        "alt_km": 35774.90940448172,
        "timestamp": "2025-12-24T07:45:05.866490+00:00",
        "meta_object_name": "INTELSAT 17 (IS-17)",
        "meta_object_id": "2010-065B",
        "meta_epoch": "2025-12-23T22:00:23.444064",
        "meta_mean_motion": 1.00271483,
        "meta_eccentricity": 0.000267,
        "meta_inclination": 0.0071,
        "meta_ra_of_asc_node": 314.686,
        "meta_arg_of_pericenter": 326.9011,
        "meta_mean_anomaly": 207.1976,
        "meta_ephemeris_type": 0,
        "meta_classification_type": "U",
        "meta_norad_cat_id": 37238,
        "meta_element_set_no": 999,
        "meta_rev_at_epoch": 5149,
        "meta_bstar": 0,
        "meta_mean_motion_dot": 2e-07,
        "meta_mean_motion_ddot": 0,
        "tle_line1": "1 37238U 10065B   25357.91693801  .00000020  00000+0  00000+0 0  9994",
        "tle_line2": "2 37238   0.0071 314.6860 0002670 326.9011 207.1976  1.00271483 51495"
      },
      "geometry": {
        "type": "Point",
        "coordinates": [
          -84.64848283048988,
          -0.01786546446810062
        ]
      }
    },
    {
      "type": "Feature",
      "properties": {
        "norad_id": 37392,
        "name": "INTELSAT 28 (IS-28)",
        "group": "intelsat",
        "lat": 1.3575144565578356,
        "lon": 177.62075592899956,
        "alt_km": 35786.756639495434,
        "timestamp": "2025-12-24T07:45:05.866501+00:00",
        "meta_object_name": "INTELSAT 28 (IS-28)",
        "meta_object_id": "2011-016A",
        "meta_epoch": "2025-12-23T21:32:26.121120",
        "meta_mean_motion": 1.00272343,
        "meta_eccentricity": 0.00036909,
        "meta_inclination": 1.3517,
        "meta_ra_of_asc_node": 84.9343,
        "meta_arg_of_pericenter": 186.2256,
        "meta_mean_anomaly": 112.9214,
        "meta_ephemeris_type": 0,
        "meta_classification_type": "U",
        "meta_norad_cat_id": 37392,
        "meta_element_set_no": 999,
        "meta_rev_at_epoch": 5152,
        "meta_bstar": 0,
        "meta_mean_motion_dot": -2.04e-06,
        "meta_mean_motion_ddot": 0,
        "tle_line1": "1 37392U 11016A   25357.89752455 -.00000204  00000+0  00000+0 0  9995",
        "tle_line2": "2 37392   1.3517  84.9343 0003690 186.2256 112.9214  1.00272343 51527"
      },
      "geometry": {
        "type": "Point",
        "coordinates": [
          177.62075592899956,
          1.3575144565578356
        ]
      }
    },
    {
      "type": "Feature",
      "properties": {
        "norad_id": 37834,
        "name": "INTELSAT 18 (IS-18)",
        "group": "intelsat",
        "lat": 0.022947787585982735,
        "lon": 29.384004675618982,
        "alt_km": 35787.65935148246,
        "timestamp": "2025-12-24T07:45:05.866513+00:00",
        "meta_object_name": "INTELSAT 18 (IS-18)",
        "meta_object_id": "2011-056A",
        "meta_epoch": "2025-12-23T17:24:42.196032",
        "meta_mean_motion": 1.00271479,
        "meta_eccentricity": 0.00017794,
        "meta_inclination": 0.025,
        "meta_ra_of_asc_node": 285.7731,
        "meta_arg_of_pericenter": 1.9109,
        "meta_mean_anomaly": 245.9993,
        "meta_ephemeris_type": 0,
        "meta_classification_type": "U",
        "meta_norad_cat_id": 37834,
        "meta_element_set_no": 999,
        "meta_rev_at_epoch": 5205,
        "meta_bstar": 0,
        "meta_mean_motion_dot": 7.4e-07,
        "meta_mean_motion_ddot": 0,
        "tle_line1": "1 37834U 11056A   25357.72548838  .00000074  00000+0  00000+0 0  9994",
        "tle_line2": "2 37834   0.0250 285.7731 0001779   1.9109 245.9993  1.00271479 52055"
      },
      "geometry": {
        "type": "Point",
        "coordinates": [
          29.384004675618982,
          0.022947787585982735
        ]
      }
    },
    {
      "type": "Feature",
      "properties": {
        "norad_id": 38098,
        "name": "INTELSAT 22 (IS-22)",
        "group": "intelsat",
        "lat": -0.04435776798590243,
        "lon": -78.55344366863626,
        "alt_km": 35778.55663935714,
        "timestamp": "2025-12-24T07:45:05.866524+00:00",
        "meta_object_name": "INTELSAT 22 (IS-22)",
        "meta_object_id": "2012-011A",
        "meta_epoch": "2025-12-23T22:02:08.276640",
        "meta_mean_motion": 1.00270433,
        "meta_eccentricity": 0.00019305,
        "meta_inclination": 0.0272,
        "meta_ra_of_asc_node": 41.8177,
        "meta_arg_of_pericenter": 254.2745,
        "meta_mean_anomaly": 199.2293,
        "meta_ephemeris_type": 0,
        "meta_classification_type": "U",
        "meta_norad_cat_id": 38098,
        "meta_element_set_no": 999,
        "meta_rev_at_epoch": 543,
        "meta_bstar": 0,
        "meta_mean_motion_dot": 0,
        "meta_mean_motion_ddot": 0,
        "tle_line1": "1 38098U 12011A   25357.91815135  .00000000  00000+0  00000+0 0  9996",
        "tle_line2": "2 38098   0.0272  41.8177 0001930 254.2745 199.2293  1.00270433  5438"
      },
      "geometry": {
        "type": "Point",
        "coordinates": [
          -78.55344366863626,
          -0.04435776798590243
        ]
      }
    },
    {
      "type": "Feature",
      "properties": {
        "norad_id": 38356,
        "name": "INTELSAT 19 (IS-19)",
        "group": "intelsat",
        "lat": 0.015451019845073138,
        "lon": 15.404645615507855,
        "alt_km": 35789.366699346356,
        "timestamp": "2025-12-24T07:45:05.866536+00:00",
        "meta_object_name": "INTELSAT 19 (IS-19)",
        "meta_object_id": "2012-030A",
        "meta_epoch": "2025-12-23T20:46:08.056128",
        "meta_mean_motion": 1.00272107,
        "meta_eccentricity": 0.00028884,
        "meta_inclination": 0.0148,
        "meta_ra_of_asc_node": 321.6246,
        "meta_arg_of_pericenter": 307.6478,
        "meta_mean_anomaly": 300.9143,
        "meta_ephemeris_type": 0,
        "meta_classification_type": "U",
        "meta_norad_cat_id": 38356,
        "meta_element_set_no": 999,
        "meta_rev_at_epoch": 4869,
        "meta_bstar": 0,
        "meta_mean_motion_dot": -3.5e-07,
        "meta_mean_motion_ddot": 0,
        "tle_line1": "1 38356U 12030A   25357.86537102 -.00000035  00000+0  00000+0 0  9992",
        "tle_line2": "2 38356   0.0148 321.6246 0002888 307.6478 300.9143  1.00272107 48692"
      },
      "geometry": {
        "type": "Point",
        "coordinates": [
          15.404645615507855,
          0.015451019845073138
        ]
      }
    },
    {
      "type": "Feature",
      "properties": {
        "norad_id": 38740,
        "name": "INTELSAT 20 (IS-20)",
        "group": "intelsat",
        "lat": -0.024164596547148934,
        "lon": -82.11370706621248,
        "alt_km": 35787.91707074225,
        "timestamp": "2025-12-24T07:45:05.866548+00:00",
        "meta_object_name": "INTELSAT 20 (IS-20)",
        "meta_object_id": "2012-043A",
        "meta_epoch": "2025-12-23T22:01:00.883776",
        "meta_mean_motion": 1.00269794,
        "meta_eccentricity": 0.00026774,
        "meta_inclination": 0.0104,
        "meta_ra_of_asc_node": 55.9246,
        "meta_arg_of_pericenter": 125.3991,
        "meta_mean_anomaly": 310.121,
        "meta_ephemeris_type": 0,
        "meta_classification_type": "U",
        "meta_norad_cat_id": 38740,
        "meta_element_set_no": 999,
        "meta_rev_at_epoch": 4899,
        "meta_bstar": 0,
        "meta_mean_motion_dot": -3e-08,
        "meta_mean_motion_ddot": 0,
        "tle_line1": "1 38740U 12043A   25357.91737134 -.00000003  00000+0  00000+0 0  9991",
        "tle_line2": "2 38740   0.0104  55.9246 0002677 125.3991 310.1210  1.00269794 48998"
      },
      "geometry": {
        "type": "Point",
        "coordinates": [
          -82.11370706621248,
          -0.024164596547148934
        ]
      }
    },
    {
      "type": "Feature",
      "properties": {
        "norad_id": 38749,
        "name": "INTELSAT 21 (IS-21)",
        "group": "intelsat",
        "lat": 0.001877654478419084,
        "lon": 151.34193386644034,
        "alt_km": 35788.26632520259,
        "timestamp": "2025-12-24T07:45:05.866560+00:00",
        "meta_object_name": "INTELSAT 21 (IS-21)",
        "meta_object_id": "2012-045A",
        "meta_epoch": "2025-12-23T11:08:42.768960",
        "meta_mean_motion": 1.00268456,
        "meta_eccentricity": 0.00015794,
        "meta_inclination": 0.0167,
        "meta_ra_of_asc_node": 301.665,
        "meta_arg_of_pericenter": 309.4209,
        "meta_mean_anomaly": 310.3485,
        "meta_ephemeris_type": 0,
        "meta_classification_type": "U",
        "meta_norad_cat_id": 38749,
        "meta_element_set_no": 999,
        "meta_rev_at_epoch": 4876,
        "meta_bstar": 0,
        "meta_mean_motion_dot": -2.64e-06,
        "meta_mean_motion_ddot": 0,
        "tle_line1": "1 38749U 12045A   25357.46438390 -.00000264  00000+0  00000+0 0  9993",
        "tle_line2": "2 38749   0.0167 301.6650 0001579 309.4209 310.3485  1.00268456 48768"
      },
      "geometry": {
        "type": "Point",
        "coordinates": [
          151.34193386644034,
          0.001877654478419084
        ]
      }
    }
  ]
}